[{"OBJECT_NAME":"RISING 2","OBJECT_ID":"2014-029D","EPOCH":"2026-03-09T22:49:58.395648","MEAN_MOTION":14.97431818,"ECCENTRICITY":0.00015683,"INCLINATION":97.6622,"RA_OF_ASC_NODE":139.362,"ARG_OF_PERICENTER":264.4485,"MEAN_ANOMALY":95.6558,"EPHEMERIS_TYPE":0,"CLASSIFICATION_TYPE":"U","NORAD_CAT_ID":39769,"ELEMENT_SET_NO":999,"REV_AT_EPOCH":63869,"BSTAR":0.00068568934,"MEAN_MOTION_DOT":7.926e-5,"MEAN_MOTION_DDOT":0},{"OBJECT_NAME":"STARLINK-34424","OBJECT_ID":"2025-123E","EPOCH":"2026-03-09T22:00:01.999584","MEAN_MOTION":14.98349951,"ECCENTRICITY":0.0004039,"INCLINATION":70.0008,"RA_OF_ASC_NODE":194.059,"ARG_OF_PERICENTER":276.3711,"MEAN_ANOMALY":238.0798,"EPHEMERIS_TYPE":0,"CLASSIFICATION_TYPE":"U","NORAD_CAT_ID":64295,"ELEMENT_SET_NO":999,"REV_AT_EPOCH":556,"BSTAR":-0.002329989,"MEAN_MOTION_DOT":-0.00027801,"MEAN_MOTION_DDOT":0}]
